NORAD_CAT_ID,OBJECT_NAME,OBJECT_TYPE,EPOCH,MEAN_MOTION,ECCENTRICITY,INCLINATION,RA_OF_ASC_NODE,ARG_OF_PERICENTER,MEAN_ANOMALY,BSTAR,MEAN_MOTION_DOT,MEAN_MOTION_DDOT,TLE_LINE0,TLE_LINE1,TLE_LINE2,SEMIMAJOR_AXIS,PERIOD,APOGEE,PERIGEE,DECAYED
50205.0,STARLINK-3260,PAYLOAD,2022-07-14 08:00:01,15.08842984,0.0001623,53.2171,79.2654,58.33600000000001,316.9802,-0.001619,-0.00025964,0.0,0 STARLINK-3260,1 50205U 21125BB  22195.33334491 -.00025964  00000-0 -16190-2 0  9999,2 50205  53.2171  79.2654 0001623  58.3360 316.9802 15.08842984 35245,6917.871,95.437,540.859,538.613,0.0
50205.0,STARLINK-3260,PAYLOAD,2022-07-14 14:00:01,15.08809971,0.0001575,53.217,78.1421,64.5342,229.4771,0.0032402,0.00051615,0.0,0 STARLINK-3260,1 50205U 21125BB  22195.58334491  .00051615  00000-0  32402-2 0  9990,2 50205  53.2170  78.1421 0001575  64.5342 229.4771 15.08809971  1301,6917.972,95.439,540.927,538.748,0.0
50205.0,STARLINK-3260,PAYLOAD,2022-07-14 22:00:00,15.08848948,0.0001689,53.217,76.6473,59.6956,245.9004,-0.00058927,-9.656e-05,0.0,0 STARLINK-3260,1 50205U 21125BB  22195.91667824 -.00009656  00000-0 -58927-3 0  9997,2 50205  53.2170  76.6473 0001689  59.6956 245.9004 15.08848948 35332,6917.853,95.437,540.886,538.55,0.0
50205.0,STARLINK-3260,PAYLOAD,2022-07-15 14:00:01,15.08814741,0.0001529,53.2169,73.6527,62.91,265.8934,0.0034436,0.00054906,0.0,0 STARLINK-3260,1 50205U 21125BB  22196.58334491  .00054906  00000-0  34436-2 0  9996,2 50205  53.2169  73.6527 0001529  62.9100 265.8934 15.08814741  1305,6917.958000000001,95.439,540.88,538.765,0.0
50205.0,STARLINK-3260,PAYLOAD,2022-07-15 22:00:00,15.08855368,0.0001656,53.217,72.1579,57.1339,283.2576,-0.0011075,-0.00017878,0.0,0 STARLINK-3260,1 50205U 21125BB  22196.91667824 -.00017878  00000-0 -11075-2 0  9995,2 50205  53.2170  72.1579 0001656  57.1339 283.2576 15.08855368  1305,6917.833000000001,95.437,540.844,538.553,0.0
50205.0,STARLINK-3260,PAYLOAD,2022-07-16 00:00:00,15.08851188,0.0001683,53.2171,71.7841,55.813,17.4813,-0.00067201,-0.00010971,0.0,0 STARLINK-3260,1 50205U 21125BB  22197.00001157 -.00010971  00000-0 -67201-3 0  9997,2 50205  53.2171  71.7841 0001683  55.8130  17.4813 15.08851188 35491,6917.846,95.437,540.875,538.547,0.0
50205.0,STARLINK-3260,PAYLOAD,2022-07-16 14:00:01,15.0883003,0.0001547,53.2172,69.1632,61.7869,301.8194,0.00058701,9.064e-05,0.0,0 STARLINK-3260,1 50205U 21125BB  22197.58334491  .00009064  00000-0  58701-3 0  9994,2 50205  53.2172  69.1632 0001547  61.7869 301.8194 15.08830030  1303,6917.911,95.438,540.846,538.706,0.0
50205.0,STARLINK-3260,PAYLOAD,2022-07-16 22:00:00,15.08831514,0.0001746,53.2173,67.6684,57.1967,317.9988,-0.00012458,-2.27e-05,0.0,0 STARLINK-3260,1 50205U 21125BB  22197.91667824 -.00002270  00000-0 -12458-3 0  9993,2 50205  53.2173  67.6684 0001746  57.1967 317.9988 15.08831514  1300,6917.906,95.438,540.979,538.563,0.0
50205.0,STARLINK-3260,PAYLOAD,2022-07-17 06:00:00,15.08866588,0.0001658,53.2174,66.1716,54.5959,332.1765,-0.0037416,-0.00059388,0.0,0 STARLINK-3260,1 50205U 21125BB  22198.25001157 -.00059388  00000-0 -37416-2 0  9994,2 50205  53.2174  66.1716 0001658  54.5959 332.1765 15.08866588 35684,6917.799,95.436,540.811,538.5169999999998,0.0
50205.0,STARLINK-3260,PAYLOAD,2022-07-17 14:00:01,15.08807786,0.000153,53.2177,64.6738,61.7415,336.6383,0.0030466,0.0004849,0.0,0 STARLINK-3260,1 50205U 21125BB  22198.58334491  .00048490  00000-0  30466-2 0  9998,2 50205  53.2177  64.6738 0001530  61.7415 336.6383 15.08807786  1302,6917.979,95.44,540.9019999999998,538.785,0.0
50205.0,STARLINK-3260,PAYLOAD,2022-07-17 22:00:00,15.08867481,0.0001641,53.2178,63.1822,54.9836,354.966,-0.0051604999999999,-0.0008154999999999,0.0,0 STARLINK-3260,1 50205U 21125BB  22198.91667824 -.00081550  00000-0 -51605-2 0  9998,2 50205  53.2178  63.1822 0001641  54.9836 354.9660 15.08867481 35783,6917.795999999999,95.436,540.797,538.526,0.0
50205.0,STARLINK-3260,PAYLOAD,2022-07-18 06:00:00,15.08837486,0.0001534,53.2178,61.6821,52.8494,8.6888,-0.0019343,-0.00030938,0.0,0 STARLINK-3260,1 50205U 21125BB  22199.25001157 -.00030938  00000-0 -19343-2 0  9994,2 50205  53.2178  61.6821 0001534  52.8494   8.6888 15.08837486 35836,6917.888000000001,95.438,540.814,538.692,0.0
50205.0,STARLINK-3260,PAYLOAD,2022-07-18 14:00:01,15.08811415,0.0001440999999999,53.2181,60.1846,60.6342,12.479,0.0024865,0.00039476,0.0,0 STARLINK-3260,1 50205U 21125BB  22199.58334491  .00039476  00000-0  24865-2 0  9999,2 50205  53.2181  60.1846 0001441  60.6342  12.4790 15.08811415  1301,6917.968000000003,95.439,540.83,538.836,0.0
50205.0,STARLINK-3260,PAYLOAD,2022-07-18 22:00:00,15.08832534,0.0001588,53.2181,58.6902,53.7719,30.9199,1.536e-05,-4.4e-07,0.0,0 STARLINK-3260,1 50205U 21125BB  22199.91667824 -.00000044  00000-0  15360-4 0  9997,2 50205  53.2181  58.6902 0001588  53.7719  30.9199 15.08832534  1302,6917.903,95.438,540.867,538.67,0.0
50205.0,STARLINK-3260,PAYLOAD,2022-07-19 00:00:00,15.08815899,0.0001611,53.218,58.31800000000001,51.7843,125.8079,0.0025391,0.00040327,0.0,0 STARLINK-3260,1 50205U 21125BB  22200.00001157  .00040327  00000-0  25391-2 0  9991,2 50205  53.2180  58.3180 0001611  51.7843 125.8079 15.08815899 35942,6917.954000000002,95.439,540.934,538.705,0.0
50205.0,STARLINK-3260,PAYLOAD,2022-07-19 14:00:01,15.08852042,0.000148,53.2182,55.6957,63.308,44.5802,-0.00075072,-0.0001222,0.0,0 STARLINK-3260,1 50205U 21125BB  22200.58334491 -.00012220  00000-0 -75072-3 0  9999,2 50205  53.2182  55.6957 0001480  63.3080  44.5802 15.08852042  1307,6917.844,95.437,540.732,538.685,0.0
50205.0,STARLINK-3260,PAYLOAD,2022-07-19 22:00:00,15.08873831,0.0001608,53.2181,54.2046,59.8362,59.6482,-0.0067798,-0.00106693,0.0,0 STARLINK-3260,1 50205U 21125BB  22200.91667824 -.00106693  00000-0 -67798-2 0  9998,2 50205  53.2181  54.2046 0001608  59.8362  59.6482 15.08873831  1305,6917.776999999999,95.435,540.754,538.53,0.0
50205.0,STARLINK-3260,PAYLOAD,2022-07-20 06:00:00,15.08882229,0.0001533,53.2179,52.7038,57.4035,73.6925,-0.0040878,-0.00064835,0.0,0 STARLINK-3260,1 50205U 21125BB  22201.25001157 -.00064835  00000-0 -40878-2 0  9998,2 50205  53.2179  52.7038 0001533  57.4035  73.6925 15.08882229 36132,6917.751,95.435,540.677,538.556,0.0
50205.0,STARLINK-3260,PAYLOAD,2022-07-20 14:00:01,15.08846038,0.0001458,53.2182,51.2067,63.7589,78.9538,0.00035304,5.336e-05,0.0,0 STARLINK-3260,1 50205U 21125BB  22201.58334491  .00005336  00000-0  35304-3 0  9992,2 50205  53.2182  51.2067 0001458  63.7589  78.9538 15.08846038  1309,6917.861999999999,95.437,540.736,538.7180000000002,0.0
50205.0,STARLINK-3260,PAYLOAD,2022-07-20 22:00:01,15.08805272,0.0001645,53.218,49.7123,57.5961,96.7365,0.00099894,0.00015631,0.0,0 STARLINK-3260,1 50205U 21125BB  22201.91668981  .00015631  00000-0  99894-3 0  9996,2 50205  53.2180  49.7123 0001645  57.5961  96.7365 15.08805272  1306,6917.986999999999,95.44,540.99,538.714,0.0
50205.0,STARLINK-3260,PAYLOAD,2022-07-21 06:00:00,15.08832617,0.0001563,53.2177,48.2151,59.6508,106.1738,-0.0014844,-0.0002383,0.0,0 STARLINK-3260,1 50205U 21125BB  22202.25001157 -.00023830  00000-0 -14844-2 0  9993,2 50205  53.2177  48.2151 0001563  59.6508 106.1738 15.08832617 36284,6917.903,95.438,540.849,538.687,0.0
50205.0,STARLINK-3260,PAYLOAD,2022-07-21 14:00:01,15.08827949,0.0001554999999999,53.218,46.7182,66.2342,111.2263,0.0010604,0.00016623,0.0,0 STARLINK-3260,1 50205U 21125BB  22202.58335648  .00016623  00000-0  10604-2 0  9994,2 50205  53.2180  46.7182 0001555  66.2342 111.2263 15.08827949  1303,6917.917,95.438,540.8580000000002,538.706,0.0
50205.0,STARLINK-3260,PAYLOAD,2022-07-21 22:00:00,15.08821655,0.0001682,53.2178,45.2237,57.802,131.1842,0.0014372,0.00022648,0.0,0 STARLINK-3260,1 50205U 21125BB  22202.91667824  .00022648  00000-0  14372-2 0  9995,2 50205  53.2178  45.2237 0001682  57.8020 131.1842 15.08821655 36394,6917.936,95.439,540.965,538.638,0.0
50205.0,STARLINK-3260,PAYLOAD,2022-07-22 00:00:00,15.08812156,0.000168,53.2177,44.8498,56.3928,225.4919,0.0032101,0.00051133,0.0,0 STARLINK-3260,1 50205U 21125BB  22203.00001157  .00051133  00000-0  32101-2 0  9998,2 50205  53.2177  44.8498 0001680  56.3928 225.4919 15.08812156  1307,6917.965,95.439,540.993,538.668,0.0
50205.0,STARLINK-3260,PAYLOAD,2022-07-22 06:00:00,15.08855746,0.0001579,53.2177,43.7262,59.7859,140.7846,-0.0013283,-0.00021375,0.0,0 STARLINK-3260,1 50205U 21125BB  22203.25001157 -.00021375  00000-0 -13283-2 0  9992,2 50205  53.2177  43.7262 0001579  59.7859 140.7846 15.08855746  1301,6917.831999999999,95.437,540.79,538.605,0.0
50205.0,STARLINK-3260,PAYLOAD,2022-07-23 00:00:00,15.08838374,0.000159,53.2177,40.3607,52.9379,263.7579,0.0012699,0.00019979,0.0,0 STARLINK-3260,1 50205U 21125BB  22204.00001157  .00019979  00000-0  12699-2 0  9991,2 50205  53.2177  40.3607 0001590  52.9379 263.7579 15.08838374  1309,6917.885,95.438,540.85,538.65,0.0
50205.0,STARLINK-3260,PAYLOAD,2022-07-23 08:00:01,15.08817487,0.0001531999999999,53.2179,38.8626,60.1256,268.1812,0.0015619,0.00024642,0.0,0 STARLINK-3260,1 50205U 21125BB  22204.33334491  .00024642  00000-0  15619-2 0  9995,2 50205  53.2179  38.8626 0001532  60.1256 268.1812 15.08817487 36607,6917.949000000001,95.439,540.874,538.754,0.0
50205.0,STARLINK-3260,PAYLOAD,2022-07-23 14:00:01,15.08840282,0.0001585,53.218,37.7403,63.7328,183.3115,0.0003555,5.374e-05,0.0,0 STARLINK-3260,1 50205U 21125BB  22204.58335648  .00005374  00000-0  35550-3 0  9995,2 50205  53.2180  37.7403 0001585  63.7328 183.3115 15.08840282  1309,6917.88,95.438,540.841,538.648,0.0
50205.0,STARLINK-3260,PAYLOAD,2022-07-23 22:00:00,15.08830091,0.0001695,53.2181,36.2457,54.1981,204.388,-0.00016893,-2.975e-05,0.0,0 STARLINK-3260,1 50205U 21125BB  22204.91667824 -.00002975  00000-0 -16893-3 0  9991,2 50205  53.2181  36.2457 0001695  54.1981 204.3880 15.08830091  1304,6917.911,95.438,540.948,538.6030000000002,0.0
